LEMUR-2-MCPEAKE         
1 42782U 17036T   17345.85840002  .00002111  00000-0  96941-4 0  9995
2 42782  97.4293  43.4950 0012698  18.1417 342.0269 15.21433396 26025
